GLOBALSTAR M035 [-]     
1 25851U 99037A   23223.71918716 -.00000040  00000+0  88936-3 0  9992
2 25851  51.9944 121.2975 0014190 330.0363  62.9088 11.04526033 21635
GLOBALSTAR M032 [-]     
1 25852U 99037B   23224.66697416 -.00000172  00000+0 -33824-2 0  9991
2 25852  51.9983 350.9236 0008638 108.9212 251.2525 11.19049554 59336
GLOBALSTAR M051 [-]     
1 25853U 99037C   23225.02834686 -.00000050  00000+0  55077-3 0  9994
2 25853  51.9749 227.1960 0001409  90.6045 269.4927 11.42189836 55377
GLOBALSTAR M048 [-]     
1 25872U 99041A   23221.29687729 -.00000062  00000+0  23075-3 0  9995
2 25872  51.9356 145.0118 0013345  88.3744  81.7511 11.33838800 47970
GLOBALSTAR M026 [-]     
1 25873U 99041B   23222.47036966  .00000010  00000+0  27238-2 0  9994
2 25873  51.9968 249.1823 0002107 221.1996 288.3203 11.06822409 73755
GLOBALSTAR M043 [-]     
1 25874U 99041C   23223.06759549 -.00000045  00000+0  70193-3 0  9998
2 25874  51.9351 221.5102 0013094 239.5335 162.1508 11.25673357 46768
GLOBALSTAR M028 [-]     
1 25875U 99041D   23225.46030353 -.00000058  00000+0  27909-3 0  9991
2 25875  51.9635  41.9186 0064244  48.9642 311.6749 12.50539318105914
